NORAD_CAT_ID,OBJECT_NAME,OBJECT_TYPE,EPOCH,MEAN_MOTION,ECCENTRICITY,INCLINATION,RA_OF_ASC_NODE,ARG_OF_PERICENTER,MEAN_ANOMALY,BSTAR,MEAN_MOTION_DOT,MEAN_MOTION_DDOT,TLE_LINE0,TLE_LINE1,TLE_LINE2,SEMIMAJOR_AXIS,PERIOD,APOGEE,PERIGEE,DECAYED
52001.0,STARLINK-3659,PAYLOAD,2023-10-29 04:24:08,15.08844657,0.0001644,53.216,291.0729,86.0349,274.0831,7.2614e-05,8.68e-06,0.0,0 STARLINK-3659,1 52001U 22025AX  23302.18343191  .00000868  00000-0  72614-4 0  9995,2 52001  53.2160 291.0729 0001644  86.0349 274.0831 15.08844657 92242,6917.866,95.437,540.868,538.594,0.0
52001.0,STARLINK-3659,PAYLOAD,2023-10-29 09:10:17,15.08850673,0.0001719,53.2159,290.1778,99.7323,260.3863,0.00029666,4.438e-05,0.0,0 STARLINK-3659,1 52001U 22025AX  23302.38214902  .00004438  00000-0  29666-3 0  9999,2 52001  53.2159 290.1778 0001719  99.7323 260.3863 15.08850673 90741,6917.848,95.437,540.902,538.524,0.0
52001.0,STARLINK-3659,PAYLOAD,2023-10-30 04:14:55,15.08838824,0.0001861,53.2153,286.6082,104.7135,255.4064,0.0001429,1.987e-05,0.0,0 STARLINK-3659,1 52001U 22025AX  23303.17703647  .00001987  00000-0  14290-3 0  9999,2 52001  53.2153 286.6082 0001861 104.7135 255.4064 15.08838824 92394,6917.884,95.438,541.036,538.462,0.0
52001.0,STARLINK-3659,PAYLOAD,2023-10-30 09:01:05,15.08841596,0.0001787,53.2167,285.7187,92.3234,267.7962,0.00017772,2.542e-05,0.0,0 STARLINK-3659,1 52001U 22025AX  23303.37575667  .00002542  00000-0  17772-3 0  9996,2 52001  53.2167 285.7187 0001787  92.3234 267.7962 15.08841596 90890,6917.876,95.437,540.977,538.504,0.0
52001.0,STARLINK-3659,PAYLOAD,2023-10-31 05:41:06,15.08844937,0.0001537,53.2154,281.8535,90.5456,269.5713,0.00023751,3.495e-05,0.0,0 STARLINK-3659,1 52001U 22025AX  23304.23687719  .00003495  00000-0  23751-3 0  9996,2 52001  53.2154 281.8535 0001537  90.5456 269.5713 15.08844937 92550,6917.865,95.437,540.794,538.667,0.0
52001.0,STARLINK-3659,PAYLOAD,2023-10-31 15:13:25,15.08841759,0.0001608,53.2155,280.0709,94.5445,265.5731,0.00014351,1.997e-05,0.0,0 STARLINK-3659,1 52001U 22025AX  23304.63431802  .00001997  00000-0  14351-3 0  9991,2 52001  53.2155 280.0709 0001608  94.5445 265.5731 15.08841759 91088,6917.875,95.437,540.852,538.628,0.0
52001.0,STARLINK-3659,PAYLOAD,2023-11-01 05:31:53,15.08841367,0.0001758,53.2171,277.3969,102.5533,257.5656,0.00013091,1.796e-05,0.0,0 STARLINK-3659,1 52001U 22025AX  23305.23047971  .00001796  00000-0  13091-3 0  9995,2 52001  53.2171 277.3969 0001758 102.5533 257.5656 15.08841367 92709,6917.876,95.437,540.957,538.525,0.0
52001.0,STARLINK-3659,PAYLOAD,2023-11-02 06:58:03,15.08847143,0.0001657,53.2169,272.6388,106.8576,253.2597,0.00015409,2.166e-05,0.0,0 STARLINK-3659,1 52001U 22025AX  23306.29031637  .00002166  00000-0  15409-3 0  9991,2 52001  53.2169 272.6388 0001657 106.8576 253.2597 15.08847143 92863,6917.859,95.437,540.87,538.577,0.0
52001.0,STARLINK-3659,PAYLOAD,2023-11-02 14:54:59,15.08840398,0.0001731,53.2168,271.1486,94.2561,265.8629,1.7023e-05,-1.7e-07,0.0,0 STARLINK-3659,1 52001U 22025AX  23306.62151790 -.00000017  00000-0  17023-4 0  9990,2 52001  53.2168 271.1486 0001731  94.2561 265.8629 15.08840398 92918,6917.879,95.438,540.942,538.547,0.0
52001.0,STARLINK-3659,PAYLOAD,2023-11-03 06:48:50,15.088531,0.0001676,53.2164,268.1754,93.8712,266.2472,0.00026284,3.899e-05,0.0,0 STARLINK-3659,1 52001U 22025AX  23307.28391325  .00003899  00000-0  26284-3 0  9991,2 52001  53.2164 268.1754 0001676  93.8712 266.2472 15.08853100 93017,6917.84,95.437,540.865,538.546,0.0
52001.0,STARLINK-3659,PAYLOAD,2023-11-03 14:45:46,15.08837876,0.0001806,53.216,266.6907,92.5984,267.5215,3.4207e-05,2.56e-06,0.0,0 STARLINK-3659,1 52001U 22025AX  23307.61512156  .00000256  00000-0  34207-4 0  9994,2 52001  53.2160 266.6907 0001806  92.5984 267.5215 15.08837876 93064,6917.887,95.438,541.001,538.503,0.0
52001.0,STARLINK-3659,PAYLOAD,2023-11-03 21:07:18,15.08839854,0.0001594,53.2162,265.4995,91.5286,268.5889,-1.9969e-05,-6.06e-06,0.0,0 STARLINK-3659,1 52001U 22025AX  23307.88008033 -.00000606  00000-0 -19969-4 0  9996,2 52001  53.2162 265.4995 0001594  91.5286 268.5889 15.08839854 91578,6917.881,95.438,540.849,538.643,0.0
52001.0,STARLINK-3659,PAYLOAD,2023-11-04 06:39:37,15.08851107,0.000152,53.2155,263.7142,98.523,261.5935,0.00037796,5.734e-05,0.0,0 STARLINK-3659,1 52001U 22025AX  23308.27751682  .00005734  00000-0  37796-3 0  9997,2 52001  53.2155 263.7142 0001520  98.5230 261.5935 15.08851107 93167,6917.846,95.437,540.763,538.66,0.0
52001.0,STARLINK-3659,PAYLOAD,2023-11-04 14:36:33,15.0884055,0.0001505,53.2164,262.2276,92.9483,267.1681,0.00024136,3.555e-05,0.0,0 STARLINK-3659,1 52001U 22025AX  23308.60872092  .00003555  00000-0  24136-3 0  9996,2 52001  53.2164 262.2276 0001505  92.9483 267.1681 15.08840550 93216,6917.879,95.438,540.785,538.703,0.0
52001.0,STARLINK-3659,PAYLOAD,2023-11-05 14:27:19,15.08862094,0.000154,53.2154,257.7662,93.7288,266.388,0.00073576,0.00011448,0.0,0 STARLINK-3659,1 52001U 22025AX  23309.60231462  .00011448  00000-0  73576-3 0  9999,2 52001  53.2154 257.7662 0001540  93.7288 266.3880 15.08862094 91839,6917.813,95.436,540.743,538.613,0.0
52001.0,STARLINK-3659,PAYLOAD,2023-11-06 03:10:23,15.08903163,0.0001932,53.217,255.3871,100.9692,259.1518,0.0018824,0.0002985,0.0,0 STARLINK-3659,1 52001U 22025AX  23310.13222167  .00029850  00000-0  18824-2 0  9991,2 52001  53.2170 255.3871 0001932 100.9692 259.1518 15.08903163 93448,6917.687,95.434,540.889,538.216,0.0
52001.0,STARLINK-3659,PAYLOAD,2023-11-06 06:21:09,15.08920396,0.0002025,53.2161,254.7921,116.1594,243.9607,0.0028066,0.00044762,0.0,0 STARLINK-3659,1 52001U 22025AX  23310.26469437  .00044762  00000-0  28066-2 0  9996,2 52001  53.2161 254.7921 0002025 116.1594 243.9607 15.08920396 93460,6917.635,95.432,540.9,538.099,0.0
52001.0,STARLINK-3659,PAYLOAD,2023-11-07 03:01:11,15.08801529,0.0001372,53.2152,250.9285,92.1708,267.9441,-0.0015306,-0.00024539,0.0,0 STARLINK-3659,1 52001U 22025AX  23311.12582738 -.00024539  00000-0 -15306-2 0  9997,2 52001  53.2152 250.9285 0001372  92.1708 267.9441 15.08801529 93597,6917.998,95.44,540.812,538.914,0.0
52001.0,STARLINK-3659,PAYLOAD,2023-11-07 12:33:31,15.08798051,0.0001389,53.216,249.1454,108.3022,251.8121,-0.00015116,-2.69e-05,0.0,0 STARLINK-3659,1 52001U 22025AX  23311.52328124 -.00002690  00000-0 -15116-3 0  9992,2 52001  53.2160 249.1454 0001389 108.3022 251.8121 15.08798051 92121,6918.009,95.44,540.835,538.913,0.0
52001.0,STARLINK-3659,PAYLOAD,2023-11-08 02:52:00,15.0882791,0.0001582,53.2164,246.4724,112.9493,247.1666,0.0012473,0.00019612,0.0,0 STARLINK-3659,1 52001U 22025AX  23312.11944956  .00019612  00000-0  12473-2 0  9997,2 52001  53.2164 246.4724 0001582 112.9493 247.1666 15.08827910 93741,6917.917,95.438,540.877,538.688,0.0
52001.0,STARLINK-3659,PAYLOAD,2023-11-08 06:02:46,15.08840978,0.0001251,53.2153,245.8717,89.948,270.1656,0.0013551,0.00021345,0.0,0 STARLINK-3659,1 52001U 22025AX  23312.25192790  .00021345  00000-0  13551-2 0  9997,2 52001  53.2153 245.8717 0001251  89.9480 270.1656 15.08840978 92233,6917.877,95.437,540.608,538.877,0.0
52001.0,STARLINK-3659,PAYLOAD,2023-11-09 02:42:47,15.08851237,0.0001522,53.216,242.0107,106.9392,253.1767,0.00037625,5.707e-05,0.0,0 STARLINK-3659,1 52001U 22025AX  23313.11304490  .00005707  00000-0  37625-3 0  9998,2 52001  53.2160 242.0107 0001522 106.9392 253.1767 15.08851237 93893,6917.846,95.437,540.764,538.658,0.0
52001.0,STARLINK-3659,PAYLOAD,2023-11-10 04:08:57,15.08855896,0.000157,53.2159,237.2544,115.2382,244.8773,0.00077069,0.00012004,0.0,0 STARLINK-3659,1 52001U 22025AX  23314.17288425  .00012004  00000-0  77069-3 0  9998,2 52001  53.2159 237.2544 0001570 115.2382 244.8773 15.08855896 94055,6917.832,95.437,540.783,538.611,0.0
52001.0,STARLINK-3659,PAYLOAD,2023-11-10 12:05:53,15.08837096,0.000203,53.215,235.7617,96.6286,263.4937,0.00072199,0.0001122,0.0,0 STARLINK-3659,1 52001U 22025AX  23314.50408589  .00011220  00000-0  72199-3 0  9998,2 52001  53.2150 235.7617 0002030  96.6286 263.4937 15.08837096 94104,6917.889,95.438,541.159,538.35,0.0
52001.0,STARLINK-3659,PAYLOAD,2023-11-11 02:24:21,15.08839404,0.0001473,53.2153,233.0894,95.6887,264.4273,9.7996e-05,1.272e-05,0.0,0 STARLINK-3659,1 52001U 22025AX  23315.10024725  .00001272  00000-0  97996-4 0  9990,2 52001  53.2153 233.0894 0001473  95.6887 264.4273 15.08839404 94199,6917.882,95.438,540.766,538.728,0.0
52001.0,STARLINK-3659,PAYLOAD,2023-11-11 11:56:40,15.08836542,0.0001439,53.2142,231.3021,87.5879,272.5278,8.4327e-05,1.054e-05,0.0,0 STARLINK-3659,1 52001U 22025AX  23315.49769096  .00001054  00000-0  84327-4 0  9991,2 52001  53.2142 231.3021 0001439  87.5879 272.5278 15.08836542 92725,6917.891,95.438,540.751,538.76,0.0
52001.0,STARLINK-3659,PAYLOAD,2023-11-11 18:18:13,15.0883681,0.0001434,53.2143,230.1125,100.9626,259.1527,2.7322e-05,1.47e-06,0.0,0 STARLINK-3659,1 52001U 22025AX  23315.76265221  .00000147  00000-0  27322-4 0  9996,2 52001  53.2143 230.1125 0001434 100.9626 259.1527 15.08836810 94293,6917.89,95.438,540.747,538.763,0.0
52001.0,STARLINK-3659,PAYLOAD,2023-11-12 11:47:27,15.08842055,0.0001518,53.2154,226.8409,94.539,265.5775,0.0002168,3.164e-05,0.0,0 STARLINK-3659,1 52001U 22025AX  23316.49129352  .00003164  00000-0  21680-3 0  9993,2 52001  53.2154 226.8409 0001518  94.5390 265.5775 15.08842055 92877,6917.874,95.437,540.789,538.689,0.0
52001.0,STARLINK-3659,PAYLOAD,2023-11-12 21:19:46,15.08845795,0.0001523,53.2152,225.0565,90.7663,269.3503,0.00032887,4.951e-05,0.0,0 STARLINK-3659,1 52001U 22025AX  23316.88873242  .00004951  00000-0  32887-3 0  9996,2 52001  53.2152 225.0565 0001523  90.7663 269.3503 15.08845795 92938,6917.863,95.437,540.781,538.674,0.0
52001.0,STARLINK-3659,PAYLOAD,2023-11-13 03:41:18,15.088572,0.0001542,53.2153,223.8663,94.6353,265.4815,0.00048064,7.373e-05,0.0,0 STARLINK-3659,1 52001U 22025AX  23317.15368772  .00007373  00000-0  48064-3 0  9999,2 52001  53.2153 223.8663 0001542  94.6353 265.4815 15.08857200 94506,6917.828,95.436,540.76,538.626,0.0
